NORAD_CAT_ID,OBJECT_NAME,OBJECT_TYPE,EPOCH,MEAN_MOTION,ECCENTRICITY,INCLINATION,RA_OF_ASC_NODE,ARG_OF_PERICENTER,MEAN_ANOMALY,BSTAR,MEAN_MOTION_DOT,MEAN_MOTION_DDOT,TLE_LINE0,TLE_LINE1,TLE_LINE2,SEMIMAJOR_AXIS,PERIOD,APOGEE,PERIGEE,DECAYED
53001.0,STARLINK-4190,PAYLOAD,2022-12-11 05:34:26,15.08827066,0.0001771,53.2208,11.3514,39.9094,320.2028,5.3411e-05,5.62e-06,0.0,0 STARLINK-4190,1 53001U 22076R   22345.23225413  .00000562  00000-0  53411-4 0  9995,2 53001  53.2208  11.3514 0001771  39.9094 320.2028 15.08827066 24507,6917.92,95.438,541.01,538.56,0.0
53001.0,STARLINK-4190,PAYLOAD,2022-12-11 08:45:13,15.08819173,0.0002005,53.2212,10.7521,52.2715,307.8458,8.3988e-05,1.048e-05,0.0,0 STARLINK-4190,1 53001U 22076R   22345.36473795  .00001048  00000-0  83988-4 0  9999,2 53001  53.2212  10.7521 0002005  52.2715 307.8458 15.08819173 24050,6917.944,95.439,541.196,538.422,0.0
53001.0,STARLINK-4190,PAYLOAD,2022-12-12 11:46:46,15.08836984,0.0002001,53.2202,5.6997,46.6184,313.4974,7.0699e-05,8.37e-06,0.0,0 STARLINK-4190,1 53001U 22076R   22346.49081538  .00000837  00000-0  70699-4 0  9994,2 53001  53.2202   5.6997 0002001  46.6184 313.4974 15.08836984 24697,6917.89,95.438,541.139,538.37,0.0
53001.0,STARLINK-4190,PAYLOAD,2022-12-13 10:02:10,15.08833155,0.0001978,53.2197,1.5376,43.4844,316.6304,0.00011573,1.554e-05,0.0,0 STARLINK-4190,1 53001U 22076R   22347.41817900  .00001554  00000-0  11573-3 0  9999,2 53001  53.2197   1.5376 0001978  43.4844 316.6304 15.08833155 24369,6917.901,95.438,541.135,538.398,0.0
53001.0,STARLINK-4190,PAYLOAD,2022-12-13 17:59:06,15.08836574,0.0001946,53.2195,0.0507,44.2442,315.8706,2.675e-05,1.38e-06,0.0,0 STARLINK-4190,1 53001U 22076R   22347.74937938  .00000138  00000-0  26750-4 0  9990,2 53001  53.2195   0.0507 0001946  44.2442 315.8706 15.08836574 24887,6917.891,95.438,541.102,538.41,0.0
53001.0,STARLINK-4190,PAYLOAD,2022-12-14 09:52:57,15.08838696,0.0001949,53.2187,357.0763,41.7507,318.3634,7.7008e-05,9.38e-06,0.0,0 STARLINK-4190,1 53001U 22076R   22348.41177837  .00000938  00000-0  77008-4 0  9999,2 53001  53.2187 357.0763 0001949  41.7507 318.3634 15.08838696 24519,6917.884,95.438,541.0980000000002,538.401,0.0
53001.0,STARLINK-4190,PAYLOAD,2022-12-14 17:49:52,15.08845315,0.0001855,53.2194,355.5904,44.6076,315.5065,0.00011447,1.534e-05,0.0,0 STARLINK-4190,1 53001U 22076R   22348.74297303  .00001534  00000-0  11447-3 0  9993,2 53001  53.2194 355.5904 0001855  44.6076 315.5065 15.08845315 24564,6917.864000000001,95.437,541.012,538.446,0.0
53001.0,STARLINK-4190,PAYLOAD,2022-12-15 00:11:25,15.08847685,0.0001764999999999,53.2187,354.4011,41.5498,318.5628,0.00012696,1.733e-05,0.0,0 STARLINK-4190,1 53001U 22076R   22349.00793009  .00001733  00000-0  12696-3 0  9995,2 53001  53.2187 354.4011 0001765  41.5498 318.5628 15.08847685 25074,6917.857,95.437,540.943,538.501,0.0
53001.0,STARLINK-4190,PAYLOAD,2022-12-15 09:43:44,15.08842499,0.0001967,53.2191,352.6157,46.334,313.7815,8.240000000000001e-05,1.024e-05,0.0,0 STARLINK-4190,1 53001U 22076R   22349.40537336  .00001024  00000-0  82400-4 0  9992,2 53001  53.2191 352.6157 0001967  46.3340 313.7815 15.08842499 24660,6917.873000000001,95.437,541.0980000000002,538.377,0.0
53001.0,STARLINK-4190,PAYLOAD,2022-12-15 17:40:39,15.08843805,0.0002089,53.2189,351.1295,45.9451,314.1713,0.00017683,2.527e-05,0.0,0 STARLINK-4190,1 53001U 22076R   22349.73657281  .00002527  00000-0  17683-3 0  9999,2 53001  53.2189 351.1295 0002089  45.9451 314.1713 15.08843805 24718,6917.869000000002,95.437,541.179,538.289,0.0
53001.0,STARLINK-4190,PAYLOAD,2022-12-16 09:34:31,15.08841927,0.0002055,53.2194,348.1563,45.4138,314.7021,8.866299999999999e-05,1.123e-05,0.0,0 STARLINK-4190,1 53001U 22076R   22350.39897235  .00001123  00000-0  88663-4 0  9996,2 53001  53.2194 348.1563 0002055  45.4138 314.7021 15.08841927 24810,6917.874,95.437,541.161,538.318,0.0
53001.0,STARLINK-4190,PAYLOAD,2022-12-16 17:31:26,15.08841794,0.0002106,53.2194,346.6696,45.2942,314.8221,6.4932e-05,7.45e-06,0.0,0 STARLINK-4190,1 53001U 22076R   22350.73017222  .00000745  00000-0  64932-4 0  9996,2 53001  53.2194 346.6696 0002106  45.2942 314.8221 15.08841794 24868,6917.875,95.437,541.197,538.283,0.0
53001.0,STARLINK-4190,PAYLOAD,2022-12-17 03:03:45,15.08839967,0.0001815,53.2197,344.8843,52.7649,307.3509,-7.8341e-06,-4.13e-06,0.0,0 STARLINK-4190,1 53001U 22076R   22351.12761517 -.00000413  00000-0 -78341-5 0  9997,2 53001  53.2197 344.8843 0001815  52.7649 307.3509 15.08839967 25392,6917.88,95.438,541.001,538.49,0.0
53001.0,STARLINK-4190,PAYLOAD,2022-12-17 09:25:19,15.08828385,0.0001963,53.2197,343.6962,43.1133,317.0013,-4.138600000000001e-05,-9.47e-06,0.0,0 STARLINK-4190,1 53001U 22076R   22351.39258509 -.00000947  00000-0 -41386-4 0  9998,2 53001  53.2197 343.6962 0001963  43.1133 317.0013 15.08828385 24969,6917.916,95.438,541.139,538.423,0.0
53001.0,STARLINK-4190,PAYLOAD,2022-12-18 06:05:19,15.08839902,0.0001915,53.2199,339.8306,43.0267,317.0875,5.8751e-05,6.47e-06,0.0,0 STARLINK-4190,1 53001U 22076R   22352.25369833  .00000647  00000-0  58751-4 0  9996,2 53001  53.2199 339.8306 0001915  43.0267 317.0875 15.08839902 25564,6917.880999999999,95.438,541.07,538.4209999999998,0.0
53001.0,STARLINK-4190,PAYLOAD,2022-12-18 09:16:06,15.0883449,0.0001904,53.2209,339.2355,45.875,314.2398,7.1249e-05,8.46e-06,0.0,0 STARLINK-4190,1 53001U 22076R   22352.38618204  .00000846  00000-0  71249-4 0  9997,2 53001  53.2209 339.2355 0001904  45.8750 314.2398 15.08834490 25116,6917.897,95.438,541.0790000000002,538.445,0.0
53001.0,STARLINK-4190,PAYLOAD,2022-12-19 05:56:07,15.08833847,0.0001893,53.2213,335.3712,43.5528,316.5614,0.00015753,2.219e-05,0.0,0 STARLINK-4190,1 53001U 22076R   22353.24730504  .00002219  00000-0  15753-3 0  9994,2 53001  53.2213 335.3712 0001893  43.5528 316.5614 15.08833847 25717,6917.899,95.438,541.0740000000002,538.455,0.0
53001.0,STARLINK-4190,PAYLOAD,2022-12-19 07:31:30,15.08835296,0.000184,53.2209,335.074,42.1437,317.9696,0.00011287,1.508e-05,0.0,0 STARLINK-4190,1 53001U 22076R   22353.31354494  .00001508  00000-0  11287-3 0  9990,2 53001  53.2209 335.0740 0001840  42.1437 317.9696 15.08835296 25250,6917.895,95.438,541.033,538.487,0.0
53001.0,STARLINK-4190,PAYLOAD,2022-12-19 15:28:25,15.08842939,0.0001887,53.2199,333.5862,42.778,317.3359,0.00025792,3.819e-05,0.0,0 STARLINK-4190,1 53001U 22076R   22353.64473887  .00003819  00000-0  25792-3 0  9997,2 53001  53.2199 333.5862 0001887  42.7780 317.3359 15.08842939 25302,6917.871,95.437,541.0419999999998,538.431,0.0
53001.0,STARLINK-4190,PAYLOAD,2022-12-20 07:22:16,15.08851405,0.0001928,53.2207,330.6143,46.699,313.4163,0.0002351,3.457e-05,0.0,0 STARLINK-4190,1 53001U 22076R   22354.30713568  .00003457  00000-0  23510-3 0  9998,2 53001  53.2207 330.6143 0001928  46.6990 313.4163 15.08851405 25403,6917.846,95.437,541.044,538.377,0.0
53001.0,STARLINK-4190,PAYLOAD,2022-12-20 23:16:08,15.08834133,0.0001878,53.2208,327.6406,48.2165,311.8987,0.00014215,1.975e-05,0.0,0 STARLINK-4190,1 53001U 22076R   22354.96954061  .00001975  00000-0  14215-3 0  9990,2 53001  53.2208 327.6406 0001878  48.2165 311.8987 15.08834133 25975,6917.898,95.438,541.063,538.464,0.0
53001.0,STARLINK-4190,PAYLOAD,2022-12-21 05:37:41,15.08827989,0.0001795,53.2197,326.4504,45.4578,314.6561,-3.524e-05,-8.49e-06,0.0,0 STARLINK-4190,1 53001U 22076R   22355.23451304 -.00000849  00000-0 -35240-4 0  9996,2 53001  53.2197 326.4504 0001795  45.4578 314.6561 15.08827989 26019,6917.917,95.438,541.024,538.54,0.0
53001.0,STARLINK-4190,PAYLOAD,2022-12-21 08:48:28,15.08826669,0.0001925,53.2201,325.8557,40.7603,319.3533,-4.6152e-05,-1.022e-05,0.0,0 STARLINK-4190,1 53001U 22076R   22355.36699365 -.00001022  00000-0 -46152-4 0  9999,2 53001  53.2201 325.8557 0001925  40.7603 319.3533 15.08826669 25562,6917.920999999999,95.438,541.118,538.4540000000002,0.0
53001.0,STARLINK-4190,PAYLOAD,2022-12-22 07:03:51,15.08838079,0.0001914,53.22,321.6928,41.0672,319.0464,-6.477100000000001e-05,-1.319e-05,0.0,0 STARLINK-4190,1 53001U 22076R   22356.29435113 -.00001319  00000-0 -64771-4 0  9997,2 53001  53.2200 321.6928 0001914  41.0672 319.0464 15.08838079 26171,6917.886,95.438,541.075,538.427,0.0
53001.0,STARLINK-4190,PAYLOAD,2022-12-22 21:22:19,15.08837607,0.0001836,53.2197,319.0165,43.7644,316.3493,9.9832e-05,1.301e-05,0.0,0 STARLINK-4190,1 53001U 22076R   22356.89050732  .00001301  00000-0  99832-4 0  9998,2 53001  53.2197 319.0165 0001836  43.7644 316.3493 15.08837607 25796,6917.888000000001,95.438,541.023,538.4830000000002,0.0
53001.0,STARLINK-4190,PAYLOAD,2022-12-23 06:54:39,15.0883147,0.0001869,53.2194,317.2321,45.0539,315.0605,0.00015117,2.118e-05,0.0,0 STARLINK-4190,1 53001U 22076R   22357.28795230  .00002118  00000-0  15117-3 0  9991,2 53001  53.2194 317.2321 0001869  45.0539 315.0605 15.08831470 25851,6917.906,95.438,541.064,538.479,0.0
53001.0,STARLINK-4190,PAYLOAD,2022-12-23 14:51:35,15.08831663,0.0001944,53.2196,315.744,43.2929,316.8216,6.7322e-05,7.83e-06,0.0,0 STARLINK-4190,1 53001U 22076R   22357.61915648  .00000783  00000-0  67322-4 0  9997,2 53001  53.2196 315.7440 0001944  43.2929 316.8216 15.08831663 26374,6917.906,95.438,541.116,538.4259999999998,0.0
53001.0,STARLINK-4190,PAYLOAD,2022-12-24 06:45:25,15.08846904,0.0001898,53.2191,312.7712,47.13,312.9851,0.00017431,2.488e-05,0.0,0 STARLINK-4190,1 53001U 22076R   22358.28154641  .00002488  00000-0  17431-3 0  9998,2 53001  53.2191 312.7712 0001898  47.1300 312.9851 15.08846904 26479,6917.859,95.437,541.0369999999998,538.411,0.0
53001.0,STARLINK-4190,PAYLOAD,2022-12-24 21:03:53,15.08843727,0.000193,53.2197,310.0962,49.7785,310.3376,0.00011468,1.538e-05,0.0,0 STARLINK-4190,1 53001U 22076R   22358.87770804  .00001538  00000-0  11468-3 0  9997,2 53001  53.2197 310.0962 0001930  49.7785 310.3376 15.08843727 26097,6917.869000000002,95.437,541.069,538.399,0.0
